SMDC ONE 1.2            
1 38759U 12048B   26068.59359052  .00013943  00000+0  57078-3 0  9996
2 38759  64.6579 143.2061 0110458 207.1808 152.3511 15.19069434101016
STARLINK-2356           
1 47896U 21021AN  26068.85878309  .00002640  00000+0  10125-3 0  9993
2 47896  53.1590 280.2025 0001108 103.5872 256.5252 15.30186543276046
